{"type": "FeatureCollection", "features": [ {"type": "Feature", "properties": {"norad_id": 67120, "name": "STARLINK-36217", "group": "last-30-days", "lat": -6.157949627581087, "lon": 68.96320805211518, "alt_km": 315.4246292113339, "timestamp": "2025-12-24T20:42:19.749504+00:00", "meta": {"OBJECT_NAME": "STARLINK-36217", "OBJECT_ID": "2025-299U", "EPOCH": "2025-12-24T06:00:02.000160", "MEAN_MOTION": 15.87832523, "ECCENTRICITY": 0.0001762, "INCLINATION": 42.9977, "RA_OF_ASC_NODE": 246.096, "ARG_OF_PERICENTER": 268.396, "MEAN_ANOMALY": 16.5508, "EPHEMERIS_TYPE": 0, "CLASSIFICATION_TYPE": "U", "NORAD_CAT_ID": 67120, "ELEMENT_SET_NO": 999, "REV_AT_EPOCH": 266, "BSTAR": -0.0072506584, "MEAN_MOTION_DOT": -0.01750112, "MEAN_MOTION_DDOT": 0}, "tle": {"line1": "1 67120U 25299U   25358.25002315 -.01750112  00000+0 -72507-2 0  9995", "line2": "2 67120  42.9977 246.0960 0001762 268.3960  16.5508 15.87832523  2666"}}, "geometry": {"type": "Point", "coordinates": [68.96320805211518, -6.157949627581087]}}, {"type": "Feature", "properties": {"norad_id": 67121, "name": "STARLINK-36124", "group": "last-30-days", "lat": -9.352944235710227, "lon": 72.48330529098664, "alt_km": 315.4871638261793, "timestamp": "2025-12-24T20:42:19.749514+00:00", "meta": {"OBJECT_NAME": "STARLINK-36124", "OBJECT_ID": "2025-299V", "EPOCH": "2025-12-24T06:00:02.000160", "MEAN_MOTION": 15.87867512, "ECCENTRICITY": 0.00018059, "INCLINATION": 42.9976, "RA_OF_ASC_NODE": 246.0841, "ARG_OF_PERICENTER": 266.3564, "MEAN_ANOMALY": 23.2541, "EPHEMERIS_TYPE": 0, "CLASSIFICATION_TYPE": "U", "NORAD_CAT_ID": 67121, "ELEMENT_SET_NO": 999, "REV_AT_EPOCH": 266, "BSTAR": -0.0072429534, "MEAN_MOTION_DOT": -0.0175122, "MEAN_MOTION_DDOT": 0}, "tle": {"line1": "1 67121U 25299V   25358.25002315 -.01751220  00000+0 -72430-2 0  9992", "line2": "2 67121  42.9976 246.0841 0001805 266.3564  23.2541 15.87867512  2668"}}, "geometry": {"type": "Point", "coordinates": [72.48330529098664, -9.352944235710227]}}, {"type": "Feature", "properties": {"norad_id": 67122, "name": "STARLINK-36188", "group": "last-30-days", "lat": -10.344136196386897, "lon": 73.59516621105868, "alt_km": 315.58750718896044, "timestamp": "2025-12-24T20:42:19.749524+00:00", "meta": {"OBJECT_NAME": "STARLINK-36188", "OBJECT_ID": "2025-299W", "EPOCH": "2025-12-24T06:00:02.000160", "MEAN_MOTION": 15.87877158, "ECCENTRICITY": 0.00017551, "INCLINATION": 42.9977, "RA_OF_ASC_NODE": 246.0806, "ARG_OF_PERICENTER": 267.709, "MEAN_ANOMALY": 23.3626, "EPHEMERIS_TYPE": 0, "CLASSIFICATION_TYPE": "U", "NORAD_CAT_ID": 67122, "ELEMENT_SET_NO": 999, "REV_AT_EPOCH": 266, "BSTAR": -0.0072471631, "MEAN_MOTION_DOT": -0.01752773, "MEAN_MOTION_DDOT": 0}, "tle": {"line1": "1 67122U 25299W   25358.25002315 -.01752773  00000+0 -72472-2 0  9993", "line2": "2 67122  42.9977 246.0806 0001755 267.7090  23.3626 15.87877158  2666"}}, "geometry": {"type": "Point", "coordinates": [73.59516621105868, -10.344136196386897]}}, {"type": "Feature", "properties": {"norad_id": 67123, "name": "STARLINK-36151", "group": "last-30-days", "lat": -8.17147973956734, "lon": 71.17174871289497, "alt_km": 315.5595342032975, "timestamp": "2025-12-24T20:42:19.749536+00:00", "meta": {"OBJECT_NAME": "STARLINK-36151", "OBJECT_ID": "2025-299X", "EPOCH": "2025-12-24T06:00:02.000160", "MEAN_MOTION": 15.87856125, "ECCENTRICITY": 0.00017487, "INCLINATION": 42.9978, "RA_OF_ASC_NODE": 246.0889, "ARG_OF_PERICENTER": 270.3042, "MEAN_ANOMALY": 17.5664, "EPHEMERIS_TYPE": 0, "CLASSIFICATION_TYPE": "U", "NORAD_CAT_ID": 67123, "ELEMENT_SET_NO": 999, "REV_AT_EPOCH": 266, "BSTAR": -0.0072267645, "MEAN_MOTION_DOT": -0.01746926, "MEAN_MOTION_DDOT": 0}, "tle": {"line1": "1 67123U 25299X   25358.25002315 -.01746926  00000+0 -72268-2 0  9990", "line2": "2 67123  42.9978 246.0889 0001748 270.3042  17.5664 15.87856125  2666"}}, "geometry": {"type": "Point", "coordinates": [71.17174871289497, -8.17147973956734]}}, {"type": "Feature", "properties": {"norad_id": 67124, "name": "STARLINK-36195", "group": "last-30-days", "lat": -11.444790653525871, "lon": 74.84314996637019, "alt_km": 315.54442120256317, "timestamp": "2025-12-24T20:42:19.749546+00:00", "meta": {"OBJECT_NAME": "STARLINK-36195", "OBJECT_ID": "2025-299Y", "EPOCH": "2025-12-24T06:00:02.000160", "MEAN_MOTION": 15.87886536, "ECCENTRICITY": 0.00018469, "INCLINATION": 42.9979, "RA_OF_ASC_NODE": 246.0766, "ARG_OF_PERICENTER": 265.5521, "MEAN_ANOMALY": 27.1502, "EPHEMERIS_TYPE": 0, "CLASSIFICATION_TYPE": "U", "NORAD_CAT_ID": 67124, "ELEMENT_SET_NO": 999, "REV_AT_EPOCH": 266, "BSTAR": -0.0072443422, "MEAN_MOTION_DOT": -0.01753002, "MEAN_MOTION_DDOT": 0}, "tle": {"line1": "1 67124U 25299Y   25358.25002315 -.01753002  00000+0 -72443-2 0  9999", "line2": "2 67124  42.9979 246.0766 0001846 265.5521  27.1502 15.87886536  2666"}}, "geometry": {"type": "Point", "coordinates": [74.84314996637019, -11.444790653525871]}}, {"type": "Feature", "properties": {"norad_id": 67125, "name": "STARLINK-36219", "group": "last-30-days", "lat": -12.479746609360165, "lon": 76.03080854868705, "alt_km": 315.60957831491305, "timestamp": "2025-12-24T20:42:19.749556+00:00", "meta": {"OBJECT_NAME": "STARLINK-36219", "OBJECT_ID": "2025-299Z", "EPOCH": "2025-12-24T06:00:02.000160", "MEAN_MOTION": 15.87896707, "ECCENTRICITY": 0.0001762, "INCLINATION": 42.9976, "RA_OF_ASC_NODE": 246.0723, "ARG_OF_PERICENTER": 266.2799, "MEAN_ANOMALY": 27.9529, "EPHEMERIS_TYPE": 0, "CLASSIFICATION_TYPE": "U", "NORAD_CAT_ID": 67125, "ELEMENT_SET_NO": 999, "REV_AT_EPOCH": 266, "BSTAR": -0.0072247864, "MEAN_MOTION_DOT": -0.01749612, "MEAN_MOTION_DDOT": 0}, "tle": {"line1": "1 67125U 25299Z   25358.25002315 -.01749612  00000+0 -72248-2 0  9995", "line2": "2 67125  42.9976 246.0723 0001762 266.2799  27.9529 15.87896707  2667"}}, "geometry": {"type": "Point", "coordinates": [76.03080854868705, -12.479746609360165]}}, {"type": "Feature", "properties": {"norad_id": 67126, "name": "STARLINK-36223", "group": "last-30-days", "lat": -13.70125314181388, "lon": 77.45342328131932, "alt_km": 315.70647168380674, "timestamp": "2025-12-24T20:42:19.749566+00:00", "meta": {"OBJECT_NAME": "STARLINK-36223", "OBJECT_ID": "2025-299AA", "EPOCH": "2025-12-24T06:00:02.000160", "MEAN_MOTION": 15.87903971, "ECCENTRICITY": 0.00018468, "INCLINATION": 42.9976, "RA_OF_ASC_NODE": 246.0678, "ARG_OF_PERICENTER": 267.7573, "MEAN_ANOMALY": 28.3171, "EPHEMERIS_TYPE": 0, "CLASSIFICATION_TYPE": "U", "NORAD_CAT_ID": 67126, "ELEMENT_SET_NO": 999, "REV_AT_EPOCH": 266, "BSTAR": -0.0072376584, "MEAN_MOTION_DOT": -0.01752939, "MEAN_MOTION_DDOT": 0}, "tle": {"line1": "1 67126U 25299AA  25358.25002315 -.01752939  00000+0 -72377-2 0  9995", "line2": "2 67126  42.9976 246.0678 0001846 267.7573  28.3171 15.87903971  2666"}}, "geometry": {"type": "Point", "coordinates": [77.45342328131932, -13.70125314181388]}}, {"type": "Feature", "properties": {"norad_id": 67127, "name": "STARLINK-36164", "group": "last-30-days", "lat": -14.806336682427139, "lon": 78.76151378062676, "alt_km": 315.78913411041685, "timestamp": "2025-12-24T20:42:19.749576+00:00", "meta": {"OBJECT_NAME": "STARLINK-36164", "OBJECT_ID": "2025-299AB", "EPOCH": "2025-12-24T06:00:02.000160", "MEAN_MOTION": 15.87911328, "ECCENTRICITY": 0.0001823, "INCLINATION": 42.9977, "RA_OF_ASC_NODE": 246.0636, "ARG_OF_PERICENTER": 268.7667, "MEAN_ANOMALY": 28.9774, "EPHEMERIS_TYPE": 0, "CLASSIFICATION_TYPE": "U", "NORAD_CAT_ID": 67127, "ELEMENT_SET_NO": 999, "REV_AT_EPOCH": 266, "BSTAR": -0.0072368405, "MEAN_MOTION_DOT": -0.01753302, "MEAN_MOTION_DDOT": 0}, "tle": {"line1": "1 67127U 25299AB  25358.25002315 -.01753302  00000+0 -72368-2 0  9991", "line2": "2 67127  42.9977 246.0636 0001823 268.7667  28.9774 15.87911328  2662"}}, "geometry": {"type": "Point", "coordinates": [78.76151378062676, -14.806336682427139]}}, {"type": "Feature", "properties": {"norad_id": 67128, "name": "STARLINK-35685", "group": "last-30-days", "lat": -17.86510678385351, "lon": 82.50720635950653, "alt_km": 315.9907638584082, "timestamp": "2025-12-24T20:42:19.749588+00:00", "meta": {"OBJECT_NAME": "STARLINK-35685", "OBJECT_ID": "2025-299AC", "EPOCH": "2025-12-24T06:00:02.000160", "MEAN_MOTION": 15.87873915, "ECCENTRICITY": 0.00018138, "INCLINATION": 42.9975, "RA_OF_ASC_NODE": 246.0512, "ARG_OF_PERICENTER": 268.2609, "MEAN_ANOMALY": 34.2747, "EPHEMERIS_TYPE": 0, "CLASSIFICATION_TYPE": "U", "NORAD_CAT_ID": 67128, "ELEMENT_SET_NO": 999, "REV_AT_EPOCH": 266, "BSTAR": -0.0071902126, "MEAN_MOTION_DOT": -0.01740736, "MEAN_MOTION_DDOT": 0}, "tle": {"line1": "1 67128U 25299AC  25358.25002315 -.01740736  00000+0 -71902-2 0  9992", "line2": "2 67128  42.9975 246.0512 0001813 268.2609  34.2747 15.87873915  2663"}}, "geometry": {"type": "Point", "coordinates": [82.50720635950653, -17.86510678385351]}}, {"type": "Feature", "properties": {"norad_id": 67129, "name": "STARLINK-36214", "group": "last-30-days", "lat": -16.07908919867451, "lon": 80.29606170109574, "alt_km": 315.87651899145385, "timestamp": "2025-12-24T20:42:19.749598+00:00", "meta": {"OBJECT_NAME": "STARLINK-36214", "OBJECT_ID": "2025-299AD", "EPOCH": "2025-12-24T06:00:02.000160", "MEAN_MOTION": 15.87903041, "ECCENTRICITY": 0.00018315, "INCLINATION": 42.9975, "RA_OF_ASC_NODE": 246.0584, "ARG_OF_PERICENTER": 268.852, "MEAN_ANOMALY": 30.8638, "EPHEMERIS_TYPE": 0, "CLASSIFICATION_TYPE": "U", "NORAD_CAT_ID": 67129, "ELEMENT_SET_NO": 999, "REV_AT_EPOCH": 266, "BSTAR": -0.0072327134, "MEAN_MOTION_DOT": -0.01751821, "MEAN_MOTION_DDOT": 0}, "tle": {"line1": "1 67129U 25299AD  25358.25002315 -.01751821  00000+0 -72327-2 0  9992", "line2": "2 67129  42.9975 246.0584 0001831 268.8520  30.8638 15.87903041  2666"}}, "geometry": {"type": "Point", "coordinates": [80.29606170109574, -16.07908919867451]}}]}